SL-4 R/B                
1 39679U 14021B   25342.64863310  .00017207  00000+0  40816-3 0  9997
2 39679  51.6073  60.4745 0102169 131.4435 229.5380 15.36517716642265
ALOS-2                  
1 39766U 14029A   25343.29374671  .00003075  00000+0  41861-3 0  9990
2 39766  97.9229  78.1889 0001445 100.7251 259.4123 14.79459759623504
YAOGAN-29               
1 41038U 15069A   25343.31078948  .00001364  00000+0  17504-3 0  9997
2 41038  98.0217   6.4712 0000418 355.7698   4.3512 14.82879108542487
ASTRO-H (HITOMI)        
1 41337U 16012A   25343.05291826  .00004259  00000+0  25469-3 0  9996
2 41337  30.9983 221.1410 0009501 141.6857 218.4457 15.09316337538522
HXMT (HUIYAN)           
1 42758U 17034A   25342.96995065  .00004600  00000+0  24298-3 0  9993
2 42758  43.0125 160.5470 0032005  19.1267 341.0775 15.16196129468761
CZ-2C R/B               
1 43521U 18054D   25342.92823374  .00113010  00000+0  77893-3 0  9999
2 43521  35.1323 206.7289 0015953 103.6735 256.5775 15.73090809414453
SAOCOM 1A               
1 43641U 18076A   25343.29637264  .00001048  00000+0  13818-3 0  9992
2 43641  97.8843 167.7685 0001541  82.4599 277.6790 14.82152870387977
H-2A R/B                
1 43682U 18084L   25343.11248924  .00021747  00000+0  59192-3 0  9991
2 43682  98.8779 176.4402 0027624 339.0460  20.9645 15.37168656391842
SAOCOM 1B               
1 46265U 20059A   25343.32762875  .00000555  00000+0  76230-4 0  9992
2 46265  97.8838 166.8997 0001269  83.9174 276.2183 14.82152741285362
CSS (TIANHE)            
1 48274U 21035A   25343.19148786  .00030369  00000+0  38224-3 0  9999
2 48274  41.4680  38.2458 0008971   2.1097 357.9778 15.58940873263472
COSMOS 2550             
1 48865U 21056A   25343.33525535  .00000017  00000+0  63535-5 0  9997
2 48865  67.1455 314.2314 0008326 269.7288  90.2912 15.33838976249607
CZ-2C R/B               
1 52794U 22058K   25343.19321618  .00031116  00000+0  56159-3 0  9992
2 52794  50.1909  61.6324 0045729 183.7619 176.3012 15.48256270196081
