CCSDS_OMM_VERS = 2.0
CREATION_DATE  = 
ORIGINATOR     = 

OBJECT_NAME    = SL-4 R/B
OBJECT_ID      = 2014-021B
CENTER_NAME    = EARTH
REF_FRAME      = TEME
TIME_SYSTEM    = UTC
MEAN_ELEMENT_THEORY = SGP/SGP4

EPOCH          = 2025-12-08T15:34:01.899840
MEAN_MOTION    = 15.36517716
ECCENTRICITY   = .0102169
INCLINATION    = 51.6073
RA_OF_ASC_NODE = 60.4745
ARG_OF_PERICENTER = 131.4435
MEAN_ANOMALY   = 229.5380

EPHEMERIS_TYPE = 0
CLASSIFICATION_TYPE = U
NORAD_CAT_ID   = 39679
ELEMENT_SET_NO = 999
REV_AT_EPOCH   = 64226
BSTAR          = .40816248E-3
MEAN_MOTION_DOT = .17207E-3
MEAN_MOTION_DDOT = 0

CCSDS_OMM_VERS = 2.0
CREATION_DATE  = 
ORIGINATOR     = 

OBJECT_NAME    = ALOS-2
OBJECT_ID      = 2014-029A
CENTER_NAME    = EARTH
REF_FRAME      = TEME
TIME_SYSTEM    = UTC
MEAN_ELEMENT_THEORY = SGP/SGP4

EPOCH          = 2025-12-09T07:02:59.715744
MEAN_MOTION    = 14.79459759
ECCENTRICITY   = .00014451
INCLINATION    = 97.9229
RA_OF_ASC_NODE = 78.1889
ARG_OF_PERICENTER = 100.7251
MEAN_ANOMALY   = 259.4123

EPHEMERIS_TYPE = 0
CLASSIFICATION_TYPE = U
NORAD_CAT_ID   = 39766
ELEMENT_SET_NO = 999
REV_AT_EPOCH   = 62350
BSTAR          = .41861308E-3
MEAN_MOTION_DOT = .3075E-4
MEAN_MOTION_DDOT = 0

CCSDS_OMM_VERS = 2.0
CREATION_DATE  = 
ORIGINATOR     = 

OBJECT_NAME    = YAOGAN-29
OBJECT_ID      = 2015-069A
CENTER_NAME    = EARTH
REF_FRAME      = TEME
TIME_SYSTEM    = UTC
MEAN_ELEMENT_THEORY = SGP/SGP4

EPOCH          = 2025-12-09T07:27:32.211072
MEAN_MOTION    = 14.82879108
ECCENTRICITY   = .0000418
INCLINATION    = 98.0217
RA_OF_ASC_NODE = 6.4712
ARG_OF_PERICENTER = 355.7698
MEAN_ANOMALY   = 4.3512

EPHEMERIS_TYPE = 0
CLASSIFICATION_TYPE = U
NORAD_CAT_ID   = 41038
ELEMENT_SET_NO = 999
REV_AT_EPOCH   = 54248
BSTAR          = .17504368E-3
MEAN_MOTION_DOT = .1364E-4
MEAN_MOTION_DDOT = 0

CCSDS_OMM_VERS = 2.0
CREATION_DATE  = 
ORIGINATOR     = 

OBJECT_NAME    = ASTRO-H (HITOMI)
OBJECT_ID      = 2016-012A
CENTER_NAME    = EARTH
REF_FRAME      = TEME
TIME_SYSTEM    = UTC
MEAN_ELEMENT_THEORY = SGP/SGP4

EPOCH          = 2025-12-09T01:16:12.137664
MEAN_MOTION    = 15.09316337
ECCENTRICITY   = .00095014
INCLINATION    = 30.9983
RA_OF_ASC_NODE = 221.1410
ARG_OF_PERICENTER = 141.6857
MEAN_ANOMALY   = 218.4457

EPHEMERIS_TYPE = 0
CLASSIFICATION_TYPE = U
NORAD_CAT_ID   = 41337
ELEMENT_SET_NO = 999
REV_AT_EPOCH   = 53852
BSTAR          = .25469379E-3
MEAN_MOTION_DOT = .4259E-4
MEAN_MOTION_DDOT = 0

CCSDS_OMM_VERS = 2.0
CREATION_DATE  = 
ORIGINATOR     = 

OBJECT_NAME    = HXMT (HUIYAN)
OBJECT_ID      = 2017-034A
CENTER_NAME    = EARTH
REF_FRAME      = TEME
TIME_SYSTEM    = UTC
MEAN_ELEMENT_THEORY = SGP/SGP4

EPOCH          = 2025-12-08T23:16:43.736160
MEAN_MOTION    = 15.16196129
ECCENTRICITY   = .0032005
INCLINATION    = 43.0125
RA_OF_ASC_NODE = 160.5470
ARG_OF_PERICENTER = 19.1267
MEAN_ANOMALY   = 341.0775

EPHEMERIS_TYPE = 0
CLASSIFICATION_TYPE = U
NORAD_CAT_ID   = 42758
ELEMENT_SET_NO = 999
REV_AT_EPOCH   = 46876
BSTAR          = .24298E-3
MEAN_MOTION_DOT = .46E-4
MEAN_MOTION_DDOT = 0

CCSDS_OMM_VERS = 2.0
CREATION_DATE  = 
ORIGINATOR     = 

OBJECT_NAME    = CZ-2C R/B
OBJECT_ID      = 2018-054D
CENTER_NAME    = EARTH
REF_FRAME      = TEME
TIME_SYSTEM    = UTC
MEAN_ELEMENT_THEORY = SGP/SGP4

EPOCH          = 2025-12-08T22:16:39.395136
MEAN_MOTION    = 15.73090809
ECCENTRICITY   = .0015953
INCLINATION    = 35.1323
RA_OF_ASC_NODE = 206.7289
ARG_OF_PERICENTER = 103.6735
MEAN_ANOMALY   = 256.5775

EPHEMERIS_TYPE = 0
CLASSIFICATION_TYPE = U
NORAD_CAT_ID   = 43521
ELEMENT_SET_NO = 999
REV_AT_EPOCH   = 41445
BSTAR          = .77893E-3
MEAN_MOTION_DOT = .11301E-2
MEAN_MOTION_DDOT = 0

CCSDS_OMM_VERS = 2.0
CREATION_DATE  = 
ORIGINATOR     = 

OBJECT_NAME    = SAOCOM 1A
OBJECT_ID      = 2018-076A
CENTER_NAME    = EARTH
REF_FRAME      = TEME
TIME_SYSTEM    = UTC
MEAN_ELEMENT_THEORY = SGP/SGP4

EPOCH          = 2025-12-09T07:06:46.596096
MEAN_MOTION    = 14.82152870
ECCENTRICITY   = .00015417
INCLINATION    = 97.8843
RA_OF_ASC_NODE = 167.7685
ARG_OF_PERICENTER = 82.4599
MEAN_ANOMALY   = 277.6790

EPHEMERIS_TYPE = 0
CLASSIFICATION_TYPE = U
NORAD_CAT_ID   = 43641
ELEMENT_SET_NO = 999
REV_AT_EPOCH   = 38797
BSTAR          = .1381812E-3
MEAN_MOTION_DOT = .1048E-4
MEAN_MOTION_DDOT = 0

CCSDS_OMM_VERS = 2.0
CREATION_DATE  = 
ORIGINATOR     = 

OBJECT_NAME    = H-2A R/B
OBJECT_ID      = 2018-084L
CENTER_NAME    = EARTH
REF_FRAME      = TEME
TIME_SYSTEM    = UTC
MEAN_ELEMENT_THEORY = SGP/SGP4

EPOCH          = 2025-12-09T02:41:59.070336
MEAN_MOTION    = 15.37168656
ECCENTRICITY   = .00276243
INCLINATION    = 98.8779
RA_OF_ASC_NODE = 176.4402
ARG_OF_PERICENTER = 339.0460
MEAN_ANOMALY   = 20.9645

EPHEMERIS_TYPE = 0
CLASSIFICATION_TYPE = U
NORAD_CAT_ID   = 43682
ELEMENT_SET_NO = 999
REV_AT_EPOCH   = 39184
BSTAR          = .59192374E-3
MEAN_MOTION_DOT = .21747E-3
MEAN_MOTION_DDOT = 0

CCSDS_OMM_VERS = 2.0
CREATION_DATE  = 
ORIGINATOR     = 

OBJECT_NAME    = SAOCOM 1B
OBJECT_ID      = 2020-059A
CENTER_NAME    = EARTH
REF_FRAME      = TEME
TIME_SYSTEM    = UTC
MEAN_ELEMENT_THEORY = SGP/SGP4

EPOCH          = 2025-12-09T07:51:47.124000
MEAN_MOTION    = 14.82152741
ECCENTRICITY   = .0001269
INCLINATION    = 97.8838
RA_OF_ASC_NODE = 166.8997
ARG_OF_PERICENTER = 83.9174
MEAN_ANOMALY   = 276.2183

EPHEMERIS_TYPE = 0
CLASSIFICATION_TYPE = U
NORAD_CAT_ID   = 46265
ELEMENT_SET_NO = 999
REV_AT_EPOCH   = 28536
BSTAR          = .76229872E-4
MEAN_MOTION_DOT = .555E-5
MEAN_MOTION_DDOT = 0

CCSDS_OMM_VERS = 2.0
CREATION_DATE  = 
ORIGINATOR     = 

OBJECT_NAME    = CSS (TIANHE)
OBJECT_ID      = 2021-035A
CENTER_NAME    = EARTH
REF_FRAME      = TEME
TIME_SYSTEM    = UTC
MEAN_ELEMENT_THEORY = SGP/SGP4

EPOCH          = 2025-12-09T04:35:44.551104
MEAN_MOTION    = 15.58940873
ECCENTRICITY   = .00089717
INCLINATION    = 41.4680
RA_OF_ASC_NODE = 38.2458
ARG_OF_PERICENTER = 2.1097
MEAN_ANOMALY   = 357.9778

EPHEMERIS_TYPE = 0
CLASSIFICATION_TYPE = U
NORAD_CAT_ID   = 48274
ELEMENT_SET_NO = 999
REV_AT_EPOCH   = 26347
BSTAR          = .38224086E-3
MEAN_MOTION_DOT = .30369E-3
MEAN_MOTION_DDOT = 0

CCSDS_OMM_VERS = 2.0
CREATION_DATE  = 
ORIGINATOR     = 

OBJECT_NAME    = COSMOS 2550
OBJECT_ID      = 2021-056A
CENTER_NAME    = EARTH
REF_FRAME      = TEME
TIME_SYSTEM    = UTC
MEAN_ELEMENT_THEORY = SGP/SGP4

EPOCH          = 2025-12-09T08:02:46.062240
MEAN_MOTION    = 15.33838976
ECCENTRICITY   = .0008326
INCLINATION    = 67.1455
RA_OF_ASC_NODE = 314.2314
ARG_OF_PERICENTER = 269.7288
MEAN_ANOMALY   = 90.2912

EPHEMERIS_TYPE = 0
CLASSIFICATION_TYPE = U
NORAD_CAT_ID   = 48865
ELEMENT_SET_NO = 999
REV_AT_EPOCH   = 24960
BSTAR          = .6353544E-5
MEAN_MOTION_DOT = .17E-6
MEAN_MOTION_DDOT = 0

CCSDS_OMM_VERS = 2.0
CREATION_DATE  = 
ORIGINATOR     = 

OBJECT_NAME    = CZ-2C R/B
OBJECT_ID      = 2022-058K
CENTER_NAME    = EARTH
REF_FRAME      = TEME
TIME_SYSTEM    = UTC
MEAN_ELEMENT_THEORY = SGP/SGP4

EPOCH          = 2025-12-09T04:38:13.877952
MEAN_MOTION    = 15.48256270
ECCENTRICITY   = .00457297
INCLINATION    = 50.1909
RA_OF_ASC_NODE = 61.6324
ARG_OF_PERICENTER = 183.7619
MEAN_ANOMALY   = 176.3012

EPHEMERIS_TYPE = 0
CLASSIFICATION_TYPE = U
NORAD_CAT_ID   = 52794
ELEMENT_SET_NO = 999
REV_AT_EPOCH   = 19608
BSTAR          = .5615892E-3
MEAN_MOTION_DOT = .31116E-3
MEAN_MOTION_DDOT = 0

